{
  "type": "FeatureCollection",
  "features": [
    {
      "type": "Feature",
      "properties": {
        "norad_id": 28054,
        "name": "DMSP 5D-3 F16 (USA 172)",
        "group": "weather",
        "lat": 22.2859335064132,
        "lon": -7.348580398098646,
        "alt_km": 840.0201248409712,
        "timestamp": "2025-12-04T23:34:05.373859+00:00",
        "meta_object_name": "DMSP 5D-3 F16 (USA 172)",
        "meta_object_id": "2003-048A",
        "meta_epoch": "2025-12-04T17:13:29.939232",
        "meta_mean_motion": 14.14419807,
        "meta_eccentricity": 0.0006831,
        "meta_inclination": 99.0051,
        "meta_ra_of_asc_node": 356.1114,
        "meta_arg_of_pericenter": 345.4042,
        "meta_mean_anomaly": 132.1918,
        "meta_ephemeris_type": 0,
        "meta_classification_type": "U",
        "meta_norad_cat_id": 28054,
        "meta_element_set_no": 999,
        "meta_rev_at_epoch": 14199,
        "meta_bstar": 0.00016398,
        "meta_mean_motion_dot": 2.68e-06,
        "meta_mean_motion_ddot": 0,
        "tle_line1": "1 28054U 03048A   25338.71770763  .00000268  00000+0  16398-3 0  9998",
        "tle_line2": "2 28054  99.0051 356.1114 0006831 345.4042 132.1918 14.14419807141994"
      },
      "geometry": {
        "type": "Point",
        "coordinates": [
          -7.348580398098646,
          22.2859335064132
        ]
      }
    },
    {
      "type": "Feature",
      "properties": {
        "norad_id": 28912,
        "name": "METEOSAT-9 (MSG-2)",
        "group": "weather",
        "lat": 7.497943417648305,
        "lon": 112.80599766853628,
        "alt_km": 35795.49598302372,
        "timestamp": "2025-12-04T23:34:05.373909+00:00",
        "meta_object_name": "METEOSAT-9 (MSG-2)",
        "meta_object_id": "2005-049B",
        "meta_epoch": "2025-12-02T20:50:55.807872",
        "meta_mean_motion": 1.00271253,
        "meta_eccentricity": 0.00040042,
        "meta_inclination": 8.9157,
        "meta_ra_of_asc_node": 56.0648,
        "meta_arg_of_pericenter": 185.08,
        "meta_mean_anomaly": 189.154,
        "meta_ephemeris_type": 0,
        "meta_classification_type": "U",
        "meta_norad_cat_id": 28912,
        "meta_element_set_no": 999,
        "meta_rev_at_epoch": 503,
        "meta_bstar": 0,
        "meta_mean_motion_dot": 1.39e-06,
        "meta_mean_motion_ddot": 0,
        "tle_line1": "1 28912U 05049B   25336.86870148  .00000139  00000+0  00000+0 0  9992",
        "tle_line2": "2 28912   8.9157  56.0648 0004004 185.0800 189.1540  1.00271253  5030"
      },
      "geometry": {
        "type": "Point",
        "coordinates": [
          112.80599766853628,
          7.497943417648305
        ]
      }
    },
    {
      "type": "Feature",
      "properties": {
        "norad_id": 29522,
        "name": "DMSP 5D-3 F17 (USA 191)",
        "group": "weather",
        "lat": -49.79888252409498,
        "lon": -4.980269546807957,
        "alt_km": 846.1637730483408,
        "timestamp": "2025-12-04T23:34:05.373928+00:00",
        "meta_object_name": "DMSP 5D-3 F17 (USA 191)",
        "meta_object_id": "2006-050A",
        "meta_epoch": "2025-12-04T15:19:15.690720",
        "meta_mean_motion": 14.14914215,
        "meta_eccentricity": 0.0009182,
        "meta_inclination": 98.7393,
        "meta_ra_of_asc_node": 344.1961,
        "meta_arg_of_pericenter": 250.1146,
        "meta_mean_anomaly": 109.9038,
        "meta_ephemeris_type": 0,
        "meta_classification_type": "U",
        "meta_norad_cat_id": 29522,
        "meta_element_set_no": 999,
        "meta_rev_at_epoch": 98490,
        "meta_bstar": 0.00019547,
        "meta_mean_motion_dot": 3.34e-06,
        "meta_mean_motion_ddot": 0,
        "tle_line1": "1 29522U 06050A   25338.63837605  .00000334  00000+0  19547-3 0  9998",
        "tle_line2": "2 29522  98.7393 344.1961 0009182 250.1146 109.9038 14.14914215984900"
      },
      "geometry": {
        "type": "Point",
        "coordinates": [
          -4.980269546807957,
          -49.79888252409498
        ]
      }
    },
    {
      "type": "Feature",
      "properties": {
        "norad_id": 32958,
        "name": "FENGYUN 3A",
        "group": "weather",
        "lat": -72.90287791063562,
        "lon": 68.93840986701244,
        "alt_km": 833.175239909754,
        "timestamp": "2025-12-04T23:34:05.373941+00:00",
        "meta_object_name": "FENGYUN 3A",
        "meta_object_id": "2008-026A",
        "meta_epoch": "2025-12-04T13:54:38.160576",
        "meta_mean_motion": 14.19510525,
        "meta_eccentricity": 0.0008295,
        "meta_inclination": 98.6684,
        "meta_ra_of_asc_node": 278.2786,
        "meta_arg_of_pericenter": 335.6429,
        "meta_mean_anomaly": 24.4354,
        "meta_ephemeris_type": 0,
        "meta_classification_type": "U",
        "meta_norad_cat_id": 32958,
        "meta_element_set_no": 999,
        "meta_rev_at_epoch": 90779,
        "meta_bstar": 0.00013514,
        "meta_mean_motion_dot": 2.42e-06,
        "meta_mean_motion_ddot": 0,
        "tle_line1": "1 32958U 08026A   25338.57960834  .00000242  00000+0  13514-3 0  9990",
        "tle_line2": "2 32958  98.6684 278.2786 0008295 335.6429  24.4354 14.19510525907793"
      },
      "geometry": {
        "type": "Point",
        "coordinates": [
          68.93840986701244,
          -72.90287791063562
        ]
      }
    },
    {
      "type": "Feature",
      "properties": {
        "norad_id": 35491,
        "name": "GOES 14",
        "group": "weather",
        "lat": -0.9541802020419687,
        "lon": -40.73466303001877,
        "alt_km": 35783.50512546025,
        "timestamp": "2025-12-04T23:34:05.373957+00:00",
        "meta_object_name": "GOES 14",
        "meta_object_id": "2009-033A",
        "meta_epoch": "2025-12-04T13:12:37.577088",
        "meta_mean_motion": 1.00272692,
        "meta_eccentricity": 0.0004194,
        "meta_inclination": 1.1765,
        "meta_ra_of_asc_node": 85.5028,
        "meta_arg_of_pericenter": 151.4844,
        "meta_mean_anomaly": 286.46,
        "meta_ephemeris_type": 0,
        "meta_classification_type": "U",
        "meta_norad_cat_id": 35491,
        "meta_element_set_no": 999,
        "meta_rev_at_epoch": 464,
        "meta_bstar": 0,
        "meta_mean_motion_dot": -5.4e-07,
        "meta_mean_motion_ddot": 0,
        "tle_line1": "1 35491U 09033A   25338.55043492 -.00000054  00000+0  00000+0 0  9998",
        "tle_line2": "2 35491   1.1765  85.5028 0004194 151.4844 286.4600  1.00272692  4646"
      },
      "geometry": {
        "type": "Point",
        "coordinates": [
          -40.73466303001877,
          -0.9541802020419687
        ]
      }
    },
    {
      "type": "Feature",
      "properties": {
        "norad_id": 35951,
        "name": "DMSP 5D-3 F18 (USA 210)",
        "group": "weather",
        "lat": -1.1547775241955542,
        "lon": 135.2413151668096,
        "alt_km": 847.4090000097949,
        "timestamp": "2025-12-04T23:34:05.373969+00:00",
        "meta_object_name": "DMSP 5D-3 F18 (USA 210)",
        "meta_object_id": "2009-057A",
        "meta_epoch": "2025-12-04T15:55:37.206048",
        "meta_mean_motion": 14.1476208,
        "meta_eccentricity": 0.0012116,
        "meta_inclination": 98.8825,
        "meta_ra_of_asc_node": 315.1052,
        "meta_arg_of_pericenter": 83.7594,
        "meta_mean_anomaly": 276.4958,
        "meta_ephemeris_type": 0,
        "meta_classification_type": "U",
        "meta_norad_cat_id": 35951,
        "meta_element_set_no": 999,
        "meta_rev_at_epoch": 83208,
        "meta_bstar": 0.00025585,
        "meta_mean_motion_dot": 4.49e-06,
        "meta_mean_motion_ddot": 0,
        "tle_line1": "1 35951U 09057A   25338.66362507  .00000449  00000+0  25585-3 0  9994",
        "tle_line2": "2 35951  98.8825 315.1052 0012116  83.7594 276.4958 14.14762080832084"
      },
      "geometry": {
        "type": "Point",
        "coordinates": [
          135.2413151668096,
          -1.1547775241955542
        ]
      }
    },
    {
      "type": "Feature",
      "properties": {
        "norad_id": 36411,
        "name": "EWS-G2 (GOES 15)",
        "group": "weather",
        "lat": 0.5490110515809777,
        "lon": 128.9748651364551,
        "alt_km": 35802.7065315661,
        "timestamp": "2025-12-04T23:34:05.373983+00:00",
        "meta_object_name": "EWS-G2 (GOES 15)",
        "meta_object_id": "2010-008A",
        "meta_epoch": "2025-12-04T14:01:10.426080",
        "meta_mean_motion": 1.00267939,
        "meta_eccentricity": 0.0006012,
        "meta_inclination": 0.7923,
        "meta_ra_of_asc_node": 86.0459,
        "meta_arg_of_pericenter": 170.865,
        "meta_mean_anomaly": 88.5235,
        "meta_ephemeris_type": 0,
        "meta_classification_type": "U",
        "meta_norad_cat_id": 36411,
        "meta_element_set_no": 999,
        "meta_rev_at_epoch": 5768,
        "meta_bstar": 0,
        "meta_mean_motion_dot": 5.2e-07,
        "meta_mean_motion_ddot": 0,
        "tle_line1": "1 36411U 10008A   25338.58414845  .00000052  00000+0  00000+0 0  9999",
        "tle_line2": "2 36411   0.7923  86.0459 0006012 170.8650  88.5235  1.00267939 57680"
      },
      "geometry": {
        "type": "Point",
        "coordinates": [
          128.9748651364551,
          0.5490110515809777
        ]
      }
    }
  ]
}